[{"OBJECT_NAME":"AL MUNTHER","OBJECT_ID":"2025-052AG","EPOCH":"2026-03-09T15:29:23.207136","MEAN_MOTION":15.28381521,"ECCENTRICITY":0.0008027,"INCLINATION":97.4001,"RA_OF_ASC_NODE":323.9152,"ARG_OF_PERICENTER":130.7043,"MEAN_ANOMALY":229.4895,"EPHEMERIS_TYPE":0,"CLASSIFICATION_TYPE":"U","NORAD_CAT_ID":63240,"ELEMENT_SET_NO":999,"REV_AT_EPOCH":5479,"BSTAR":0.00065015,"MEAN_MOTION_DOT":0.00017933,"MEAN_MOTION_DDOT":0},{"OBJECT_NAME":"STARLINK-33734","OBJECT_ID":"2025-063E","EPOCH":"2026-03-09T23:35:28.039488","MEAN_MOTION":15.30217354,"ECCENTRICITY":0.00016835,"INCLINATION":53.1602,"RA_OF_ASC_NODE":61.0759,"ARG_OF_PERICENTER":77.5329,"MEAN_ANOMALY":282.586,"EPHEMERIS_TYPE":0,"CLASSIFICATION_TYPE":"U","NORAD_CAT_ID":63367,"ELEMENT_SET_NO":999,"REV_AT_EPOCH":5461,"BSTAR":0.0011497586,"MEAN_MOTION_DOT":0.00033867,"MEAN_MOTION_DDOT":0}]
